JILIN-1 03              
1 41914U 17002B   26190.28655954  .00009931  00000+0  23368-3 0  9997
2 41914  97.1952 197.0666 0008030  95.0815 265.1349 15.42128324525260
CARTOSAT-2D             
1 41948U 17008A   26190.28871605  .00001337  00000+0  66625-4 0  9999
2 41948  97.4096 249.1802 0005468 155.8956 204.2536 15.19254397520938
CARTOSAT-2E             
1 42767U 17036C   26190.30637109  .00002672  00000+0  13010-3 0  9994
2 42767  97.4264 249.7433 0002721 213.9289 146.1772 15.19225600501508
IRIDIUM 113             
1 42803U 17039A   26190.28721026  .00000131  00000+0  39807-4 0  9998
2 42803  86.3989 312.9414 0002171  91.8768 268.2676 14.34217814474351
NORSAT 2                
1 42828U 17042D   26189.72169905  .00006542  00000+0  28636-3 0  9997
2 42828  97.4054   2.8279 0008728 343.2577  16.8370 15.22347189491011
TECHNOSAT               
1 42829U 17042E   26190.25612473  .00002728  00000+0  19535-3 0  9991
2 42829  97.4302 347.0777 0017912  22.5340 337.6669 15.05086319490026
FLYING LAPTOP           
1 42831U 17042G   26190.31481613  .00002194  00000+0  17440-3 0  9991
2 42831  97.4786 345.0110 0019875  51.1476 309.1518 15.01286913489777
WNISAT 1R               
1 42835U 17042L   26190.21251872  .00001035  00000+0  83663-4 0  9990
2 42835  97.4829 345.5487 0011563  83.1561 277.0980 15.01850601489819
LEMUR-2-GREENBERG       
1 42837U 17042N   26190.23410264  .00012814  00000+0  41639-3 0  9999
2 42837  97.3832  10.7689 0007140 284.7697  75.2753 15.32026060491765
LEMUR-2-FURIAUS         
1 42840U 17042R   26189.45874100  .00011223  00000+0  37717-3 0  9993
2 42840  97.3781   7.9032 0006516 356.1929   3.9261 15.30975722491465
CORVUS BC2              
1 42846U 17042X   26189.91647159  .00002218  00000+0  15417-3 0  9999
2 42846  97.4091 350.4254 0013919  43.2717 316.9601 15.06435714490337
CORVUS BC1              
1 42847U 17042Y   26189.90867860  .00001898  00000+0  13199-3 0  9990
2 42847  97.4123 351.2462 0012254  22.1714 338.0041 15.06600810490365
VRSS-2                  
1 42954U 17060A   26190.27714582  .00001052  00000+0  14108-3 0  9996
2 42954  97.6505 227.0085 0017936  32.4457 327.7855 14.81233924471728
MOHAMMED VI-A           
1 43005U 17070A   26190.29482667  .00000509  00000+0  79218-4 0  9993
2 43005  97.9546 262.3210 0001151  91.0006 269.1336 14.77098207467242
FENGYUN 3D              
1 43010U 17072A   26190.27640856  .00000377  00000+0  20013-3 0  9996
2 43010  99.0140 165.0992 0001858  25.5771 334.5496 14.19744662448121
NOAA 20 (JPSS-1)        
1 43013U 17073A   26190.27500000  .00000024  00000+0  32170-4 0  9993
2 43013  98.7773 129.5417 0001156 129.7093 230.4185 14.19515732447609
MAKERSAT 0              
1 43016U 17073D   26189.72816002  .00013683  00000+0  36375-3 0  9991
2 43016  97.4597  72.4218 0105066 195.3224 164.4830 15.32839065469765
RADFXSAT (FOX-1B)       
1 43017U 17073E   26189.43942832  .00004488  00000+0  19744-3 0  9995
2 43017  97.4685  56.2209 0148105 255.0605 103.4188 15.13003288468602
JILIN-1 04              
1 43022U 17074A   26190.26921647  .00010511  00000+0  24019-3 0  9991
2 43022  97.4865 300.4806 0005189 115.6090 244.5694 15.43026110477676
JILIN-1 05              
1 43023U 17074B   26190.29913632  .00006213  00000+0  18993-3 0  9998
2 43023  97.4871 296.7586 0006158 141.0985 219.0702 15.34225237477396
JILIN-1 06              
1 43024U 17074C   26190.27395734  .00004096  00000+0  12710-3 0  9992
2 43024  97.4797 293.7135 0007658 151.9972 208.1683 15.33952847477225
IRIDIUM 116             
1 43072U 17083C   26189.84322749  .00000184  00000+0  58600-4 0  9995
2 43072  86.3982 312.9478 0002372 100.2610 259.8854 14.34219576447279
IRIDIUM 130             
1 43073U 17083D   26190.29989865  .00000163  00000+0  50980-4 0  9995
2 43073  86.3990 313.0346 0002124 100.8223 259.3212 14.34216445447282
LKW-2                   
1 43080U 17084A   26190.31633818  .00006096  00000+0  23516-3 0  9996
2 43080  97.1186 229.0804 0003249 131.7179 228.4339 15.26639790475062
SUPERVIEW-1 03          
1 43099U 18002A   26190.26320035  .00014800  00000+0  35770-3 0  9992
2 43099  97.3128 275.0770 0047232 101.8487 258.8062 15.40067521471769
CARTOSAT-2F             
1 43111U 18004A   26190.33898605  .00001336  00000+0  66664-4 0  9997
2 43111  97.4779 249.7563 0002333 146.6146 213.5237 15.19239751470692
LKW-3                   
1 43146U 18006A   26190.27655892  .00005799  00000+0  16971-3 0  9991
2 43146  97.6633 351.7222 0002413 201.8234 158.2907 15.35667559472104
ASNARO-2                
1 43152U 18007A   26190.27050303  .00005932  00000+0  25985-3 0  9999
2 43152  97.3976 196.8523 0001978  93.7114 266.4348 15.22388592470775
