OBJECT_NAME,OBJECT_ID,EPOCH,MEAN_MOTION,ECCENTRICITY,INCLINATION,RA_OF_ASC_NODE,ARG_OF_PERICENTER,MEAN_ANOMALY,EPHEMERIS_TYPE,CLASSIFICATION_TYPE,NORAD_CAT_ID,ELEMENT_SET_NO,REV_AT_EPOCH,BSTAR,MEAN_MOTION_DOT,MEAN_MOTION_DDOT
JILIN-1 03,2017-002B,2026-07-09T06:52:38.744256,15.42128324,.00080306,97.1952,197.0666,95.0815,265.1349,0,U,41914,999,52526,.23368105E-3,.9931E-4,0
CARTOSAT-2D,2017-008A,2026-07-09T06:55:45.066720,15.19254397,.00054686,97.4096,249.1802,155.8956,204.2536,0,U,41948,999,52093,.66624735E-4,.1337E-4,0
CARTOSAT-2E,2017-036C,2026-07-09T07:21:10.462176,15.19225600,.00027214,97.4264,249.7433,213.9289,146.1772,0,U,42767,999,50150,.13009699E-3,.2672E-4,0
IRIDIUM 113,2017-039A,2026-07-09T06:53:34.966464,14.34217814,.00021713,86.3989,312.9414,91.8768,268.2676,0,U,42803,999,47435,.39807368E-4,.131E-5,0
NORSAT 2,2017-042D,2026-07-08T17:19:14.797920,15.22347189,.00087281,97.4054,2.8279,343.2577,16.8370,0,U,42828,999,49101,.2863563E-3,.6542E-4,0
TECHNOSAT,2017-042E,2026-07-09T06:08:49.176672,15.05086319,.00179124,97.4302,347.0777,22.5340,337.6669,0,U,42829,999,49002,.19535008E-3,.2728E-4,0
FLYING LAPTOP,2017-042G,2026-07-09T07:33:20.113632,15.01286913,.00198752,97.4786,345.0110,51.1476,309.1518,0,U,42831,999,48977,.17440082E-3,.2194E-4,0
WNISAT 1R,2017-042L,2026-07-09T05:06:01.617408,15.01850601,.00115637,97.4829,345.5487,83.1561,277.0980,0,U,42835,999,48981,.83663334E-4,.1035E-4,0
LEMUR-2-GREENBERG,2017-042N,2026-07-09T05:37:06.468096,15.32026060,.000714,97.3832,10.7689,284.7697,75.2753,0,U,42837,999,49176,.41638677E-3,.12814E-3,0
LEMUR-2-FURIAUS,2017-042R,2026-07-08T11:00:35.222400,15.30975722,.0006516,97.3781,7.9032,356.1929,3.9261,0,U,42840,999,49146,.37716981E-3,.11223E-3,0
CORVUS BC2,2017-042X,2026-07-08T21:59:43.145376,15.06435714,.00139194,97.4091,350.4254,43.2717,316.9601,0,U,42846,999,49033,.15416919E-3,.2218E-4,0
CORVUS BC1,2017-042Y,2026-07-08T21:48:29.831040,15.06600810,.00122543,97.4123,351.2462,22.1714,338.0041,0,U,42847,999,49036,.13199073E-3,.1898E-4,0
VRSS-2,2017-060A,2026-07-09T06:39:05.398848,14.81233924,.00179365,97.6505,227.0085,32.4457,327.7855,0,U,42954,999,47172,.14108231E-3,.1052E-4,0
MOHAMMED VI-A,2017-070A,2026-07-09T07:04:33.024288,14.77098207,.00011512,97.9546,262.3210,91.0006,269.1336,0,U,43005,999,46724,.79217501E-4,.509E-5,0
FENGYUN 3D,2017-072A,2026-07-09T06:38:01.699584,14.19744662,.00018586,99.0140,165.0992,25.5771,334.5496,0,U,43010,999,44812,.20012921E-3,.377E-5,0
NOAA 20 (JPSS-1),2017-073A,2026-07-09T06:36:00.000000,14.19515732,.00011567,98.7773,129.5417,129.7093,230.4185,0,U,43013,999,44760,.32170244E-4,.24E-6,0
MAKERSAT 0,2017-073D,2026-07-08T17:28:33.025728,15.32839065,.01050669,97.4597,72.4218,195.3224,164.4830,0,U,43016,999,46976,.36375063E-3,.13683E-3,0
RADFXSAT (FOX-1B),2017-073E,2026-07-08T10:32:46.606848,15.13003288,.0148105,97.4685,56.2209,255.0605,103.4188,0,U,43017,999,46860,.1974387E-3,.4488E-4,0
JILIN-1 04,2017-074A,2026-07-09T06:27:40.303008,15.43026110,.00051897,97.4865,300.4806,115.6090,244.5694,0,U,43022,999,47767,.24018809E-3,.10511E-3,0
JILIN-1 05,2017-074B,2026-07-09T07:10:45.378048,15.34225237,.00061587,97.4871,296.7586,141.0985,219.0702,0,U,43023,999,47739,.18992742E-3,.6213E-4,0
JILIN-1 06,2017-074C,2026-07-09T06:34:29.914176,15.33952847,.00076589,97.4797,293.7135,151.9972,208.1683,0,U,43024,999,47722,.12710338E-3,.4096E-4,0
IRIDIUM 116,2017-083C,2026-07-08T20:14:14.855136,14.34219576,.0002372,86.3982,312.9478,100.2610,259.8854,0,U,43072,999,44727,.58600266E-4,.184E-5,0
IRIDIUM 130,2017-083D,2026-07-09T07:11:51.243360,14.34216445,.0002124,86.3990,313.0346,100.8223,259.3212,0,U,43073,999,44728,.50979736E-4,.163E-5,0
LKW-2,2017-084A,2026-07-09T07:35:31.618752,15.26639790,.00032495,97.1186,229.0804,131.7179,228.4339,0,U,43080,999,47506,.23515929E-3,.6096E-4,0
SUPERVIEW-1 03,2018-002A,2026-07-09T06:19:00.510240,15.40067521,.00472325,97.3128,275.0770,101.8487,258.8062,0,U,43099,999,47176,.35769597E-3,.148E-3,0
CARTOSAT-2F,2018-004A,2026-07-09T08:08:08.394720,15.19239751,.00023333,97.4779,249.7563,146.6146,213.5237,0,U,43111,999,47069,.66664348E-4,.1336E-4,0
LKW-3,2018-006A,2026-07-09T06:38:14.690688,15.35667559,.00024135,97.6633,351.7222,201.8234,158.2907,0,U,43146,999,47210,.16971205E-3,.5799E-4,0
ASNARO-2,2018-007A,2026-07-09T06:29:31.461792,15.22388592,.00019788,97.3976,196.8523,93.7114,266.4348,0,U,43152,999,47077,.25985042E-3,.5932E-4,0
